{"type": "FeatureCollection", "features": [ {"type": "Feature", "properties": {"norad_id": 40701, "name": "GAOFEN-8", "group": "resource", "lat": 75.96011130705143, "lon": 24.459542556873913, "alt_km": 434.6976945473707, "timestamp": "2025-12-19T06:59:43.561257+00:00", "meta": {"OBJECT_NAME": "GAOFEN-8", "OBJECT_ID": "2015-030A", "EPOCH": "2025-12-18T22:45:06.177888", "MEAN_MOTION": 15.38757237, "ECCENTRICITY": 0.00118714, "INCLINATION": 97.6902, "RA_OF_ASC_NODE": 171.3911, "ARG_OF_PERICENTER": 116.9784, "MEAN_ANOMALY": 243.2674, "EPHEMERIS_TYPE": 0, "CLASSIFICATION_TYPE": "U", "NORAD_CAT_ID": 40701, "ELEMENT_SET_NO": 999, "REV_AT_EPOCH": 58366, "BSTAR": 0.00048693956, "MEAN_MOTION_DOT": 0.00018633, "MEAN_MOTION_DDOT": 0}, "tle": {"line1": "1 40701U 15030A   25352.94798817  .00018633  00000+0  48694-3 0  9995", "line2": "2 40701  97.6902 171.3911 0011871 116.9784 243.2674 15.38757237583668"}}, "geometry": {"type": "Point", "coordinates": [24.459542556873913, 75.96011130705143]}}, {"type": "Feature", "properties": {"norad_id": 40718, "name": "CARBONITE 1 (CBNT-1)", "group": "resource", "lat": 23.06778237923065, "lon": -2.677040713262847, "alt_km": 609.8173343056314, "timestamp": "2025-12-19T06:59:43.561267+00:00", "meta": {"OBJECT_NAME": "CARBONITE 1 (CBNT-1)", "OBJECT_ID": "2015-032D", "EPOCH": "2025-12-18T23:48:47.873664", "MEAN_MOTION": 14.82772416, "ECCENTRICITY": 0.00148633, "INCLINATION": 97.6394, "RA_OF_ASC_NODE": 173.7602, "ARG_OF_PERICENTER": 161.0948, "MEAN_ANOMALY": 199.0821, "EPHEMERIS_TYPE": 0, "CLASSIFICATION_TYPE": "U", "NORAD_CAT_ID": 40718, "ELEMENT_SET_NO": 999, "REV_AT_EPOCH": 56263, "BSTAR": 0.00025210393, "MEAN_MOTION_DOT": 1.991e-05, "MEAN_MOTION_DDOT": 0}, "tle": {"line1": "1 40718U 15032D   25352.99222076  .00001991  00000+0  25210-3 0  9997", "line2": "2 40718  97.6394 173.7602 0014863 161.0948 199.0821 14.82772416562631"}}, "geometry": {"type": "Point", "coordinates": [-2.677040713262847, 23.06778237923065]}}, {"type": "Feature", "properties": {"norad_id": 40878, "name": "YAOGAN-27", "group": "resource", "lat": -67.1941160821488, "lon": 137.53439126490215, "alt_km": 1201.5957980102303, "timestamp": "2025-12-19T06:59:43.561278+00:00", "meta": {"OBJECT_NAME": "YAOGAN-27", "OBJECT_ID": "2015-040A", "EPOCH": "2025-12-18T22:26:00.080160", "MEAN_MOTION": 13.16062156, "ECCENTRICITY": 0.00075747, "INCLINATION": 100.1006, "RA_OF_ASC_NODE": 342.2746, "ARG_OF_PERICENTER": 271.2058, "MEAN_ANOMALY": 88.8188, "EPHEMERIS_TYPE": 0, "CLASSIFICATION_TYPE": "U", "NORAD_CAT_ID": 40878, "ELEMENT_SET_NO": 999, "REV_AT_EPOCH": 49395, "BSTAR": 0.00057758699, "MEAN_MOTION_DOT": 1.77e-06, "MEAN_MOTION_DDOT": 0}, "tle": {"line1": "1 40878U 15040A   25352.93472315  .00000177  00000+0  57759-3 0  9998", "line2": "2 40878 100.1006 342.2746 0007574 271.2058  88.8188 13.16062156493955"}}, "geometry": {"type": "Point", "coordinates": [137.53439126490215, -67.1941160821488]}}, {"type": "Feature", "properties": {"norad_id": 40894, "name": "GAOFEN-9 01", "group": "resource", "lat": 68.5460874011906, "lon": 11.954239113206803, "alt_km": 604.2132651819948, "timestamp": "2025-12-19T06:59:43.561288+00:00", "meta": {"OBJECT_NAME": "GAOFEN-9 01", "OBJECT_ID": "2015-047A", "EPOCH": "2025-12-18T22:34:59.085696", "MEAN_MOTION": 14.82437201, "ECCENTRICITY": 0.00279044, "INCLINATION": 97.6535, "RA_OF_ASC_NODE": 31.6285, "ARG_OF_PERICENTER": 14.4223, "MEAN_ANOMALY": 345.7781, "EPHEMERIS_TYPE": 0, "CLASSIFICATION_TYPE": "U", "NORAD_CAT_ID": 40894, "ELEMENT_SET_NO": 999, "REV_AT_EPOCH": 55348, "BSTAR": 0.00011639457, "MEAN_MOTION_DOT": 8.88e-06, "MEAN_MOTION_DDOT": 0}, "tle": {"line1": "1 40894U 15047A   25352.94096164  .00000888  00000+0  11639-3 0  9994", "line2": "2 40894  97.6535  31.6285 0027904  14.4223 345.7781 14.82437201553487"}}, "geometry": {"type": "Point", "coordinates": [11.954239113206803, 68.5460874011906]}}, {"type": "Feature", "properties": {"norad_id": 41026, "name": "YAOGAN-28", "group": "resource", "lat": 49.7912737367932, "lon": -40.40187456768039, "alt_km": 480.06038346607056, "timestamp": "2025-12-19T06:59:43.561298+00:00", "meta": {"OBJECT_NAME": "YAOGAN-28", "OBJECT_ID": "2015-064A", "EPOCH": "2025-12-18T22:33:11.026080", "MEAN_MOTION": 15.24451446, "ECCENTRICITY": 0.00126035, "INCLINATION": 97.2808, "RA_OF_ASC_NODE": 130.5572, "ARG_OF_PERICENTER": 106.2589, "MEAN_ANOMALY": 254.0037, "EPHEMERIS_TYPE": 0, "CLASSIFICATION_TYPE": "U", "NORAD_CAT_ID": 41026, "ELEMENT_SET_NO": 999, "REV_AT_EPOCH": 56319, "BSTAR": 0.00027336116, "MEAN_MOTION_DOT": 6.656e-05, "MEAN_MOTION_DDOT": 0}, "tle": {"line1": "1 41026U 15064A   25352.93971095  .00006656  00000+0  27336-3 0  9995", "line2": "2 41026  97.2808 130.5572 0012603 106.2589 254.0037 15.24451446563196"}}, "geometry": {"type": "Point", "coordinates": [-40.40187456768039, 49.7912737367932]}}, {"type": "Feature", "properties": {"norad_id": 41038, "name": "YAOGAN-29", "group": "resource", "lat": -31.338781981660137, "lon": 21.410639329339073, "alt_km": 626.4996494493844, "timestamp": "2025-12-19T06:59:43.561308+00:00", "meta": {"OBJECT_NAME": "YAOGAN-29", "OBJECT_ID": "2015-069A", "EPOCH": "2025-12-18T23:02:26.853792", "MEAN_MOTION": 14.82888945, "ECCENTRICITY": 3.922e-05, "INCLINATION": 98.0215, "RA_OF_ASC_NODE": 16.152, "ARG_OF_PERICENTER": 187.363, "MEAN_ANOMALY": 172.7578, "EPHEMERIS_TYPE": 0, "CLASSIFICATION_TYPE": "U", "NORAD_CAT_ID": 41038, "ELEMENT_SET_NO": 999, "REV_AT_EPOCH": 54391, "BSTAR": 6.4072271e-05, "MEAN_MOTION_DOT": 4.65e-06, "MEAN_MOTION_DDOT": 0}, "tle": {"line1": "1 41038U 15069A   25352.96003303  .00000465  00000+0  64072-4 0  9995", "line2": "2 41038  98.0215  16.1520 0000392 187.3630 172.7578 14.82888945543916"}}, "geometry": {"type": "Point", "coordinates": [21.410639329339073, -31.338781981660137]}}, {"type": "Feature", "properties": {"norad_id": 41167, "name": "KENT RIDGE 1", "group": "resource", "lat": 5.28457859338168, "lon": -37.71148091590111, "alt_km": 494.74321278437037, "timestamp": "2025-12-19T06:59:43.561318+00:00", "meta": {"OBJECT_NAME": "KENT RIDGE 1", "OBJECT_ID": "2015-077B", "EPOCH": "2025-12-18T16:08:28.827168", "MEAN_MOTION": 15.21681708, "ECCENTRICITY": 0.00085172, "INCLINATION": 14.978, "RA_OF_ASC_NODE": 167.1166, "ARG_OF_PERICENTER": 214.7509, "MEAN_ANOMALY": 145.2257, "EPHEMERIS_TYPE": 0, "CLASSIFICATION_TYPE": "U", "NORAD_CAT_ID": 41167, "ELEMENT_SET_NO": 999, "REV_AT_EPOCH": 55354, "BSTAR": 0.00013855857, "MEAN_MOTION_DOT": 3.984e-05, "MEAN_MOTION_DDOT": 0}, "tle": {"line1": "1 41167U 15077B   25352.67255587  .00003984  00000+0  13856-3 0  9990", "line2": "2 41167  14.9780 167.1166 0008517 214.7509 145.2257 15.21681708553544"}}, "geometry": {"type": "Point", "coordinates": [-37.71148091590111, 5.28457859338168]}}, {"type": "Feature", "properties": {"norad_id": 41194, "name": "GAOFEN-4", "group": "resource", "lat": -0.13286696502522152, "lon": -61.19770795173371, "alt_km": 35792.43021110855, "timestamp": "2025-12-19T06:59:43.561330+00:00", "meta": {"OBJECT_NAME": "GAOFEN-4", "OBJECT_ID": "2015-083A", "EPOCH": "2025-12-18T22:21:32.534784", "MEAN_MOTION": 1.00273539, "ECCENTRICITY": 0.00029294, "INCLINATION": 0.186, "RA_OF_ASC_NODE": 81.7696, "ARG_OF_PERICENTER": 93.5491, "MEAN_ANOMALY": 353.5637, "EPHEMERIS_TYPE": 0, "CLASSIFICATION_TYPE": "U", "NORAD_CAT_ID": 41194, "ELEMENT_SET_NO": 999, "REV_AT_EPOCH": 3672, "BSTAR": 0, "MEAN_MOTION_DOT": -3.1e-06, "MEAN_MOTION_DDOT": 0}, "tle": {"line1": "1 41194U 15083A   25352.93162656 -.00000310  00000+0  00000+0 0  9994", "line2": "2 41194   0.1860  81.7696 0002929  93.5491 353.5637  1.00273539 36726"}}, "geometry": {"type": "Point", "coordinates": [-61.19770795173371, -0.13286696502522152]}}, {"type": "Feature", "properties": {"norad_id": 41240, "name": "JASON-3", "group": "resource", "lat": 63.66697693881931, "lon": -152.005368602711, "alt_km": 1309.285343770408, "timestamp": "2025-12-19T06:59:43.561341+00:00", "meta": {"OBJECT_NAME": "JASON-3", "OBJECT_ID": "2016-002A", "EPOCH": "2025-12-18T23:07:52.952448", "MEAN_MOTION": 12.8762688, "ECCENTRICITY": 0.00072036, "INCLINATION": 66.0397, "RA_OF_ASC_NODE": 144.7386, "ARG_OF_PERICENTER": 271.1791, "MEAN_ANOMALY": 88.8402, "EPHEMERIS_TYPE": 0, "CLASSIFICATION_TYPE": "U", "NORAD_CAT_ID": 41240, "ELEMENT_SET_NO": 999, "REV_AT_EPOCH": 46404, "BSTAR": 7.8453299e-05, "MEAN_MOTION_DOT": -4.2e-07, "MEAN_MOTION_DDOT": 0}, "tle": {"line1": "1 41240U 16002A   25352.96380732 -.00000042  00000+0  78453-4 0  9992", "line2": "2 41240  66.0397 144.7386 0007203 271.1791  88.8402 12.87626880464043"}}, "geometry": {"type": "Point", "coordinates": [-152.005368602711, 63.66697693881931]}}, {"type": "Feature", "properties": {"norad_id": 41335, "name": "SENTINEL-3A", "group": "resource", "lat": 34.13239747559206, "lon": -115.87812598908519, "alt_km": 800.0438590704152, "timestamp": "2025-12-19T06:59:43.561351+00:00", "meta": {"OBJECT_NAME": "SENTINEL-3A", "OBJECT_ID": "2016-011A", "EPOCH": "2025-12-18T21:54:03.611520", "MEAN_MOTION": 14.26733008, "ECCENTRICITY": 9.144e-05, "INCLINATION": 98.6307, "RA_OF_ASC_NODE": 57.8388, "ARG_OF_PERICENTER": 93.1397, "MEAN_ANOMALY": 266.9888, "EPHEMERIS_TYPE": 0, "CLASSIFICATION_TYPE": "U", "NORAD_CAT_ID": 41335, "ELEMENT_SET_NO": 999, "REV_AT_EPOCH": 51235, "BSTAR": 6.3750474e-05, "MEAN_MOTION_DOT": 1.11e-06, "MEAN_MOTION_DDOT": 0}, "tle": {"line1": "1 41335U 16011A   25352.91254180  .00000111  00000+0  63750-4 0  9999", "line2": "2 41335  98.6307  57.8388 0000914  93.1397 266.9888 14.26733008512353"}}, "geometry": {"type": "Point", "coordinates": [-115.87812598908519, 34.13239747559206]}}]}